{"type": "FeatureCollection", "features": [ {"type": "Feature", "properties": {"norad_id": 34375, "name": "IRIDIUM 33 DEB", "group": "iridium-33-debris", "lat": 72.97408664893153, "lon": -12.481946545349171, "alt_km": 750.8829543351549, "timestamp": "2025-12-21T05:44:51.972571+00:00", "meta": {"OBJECT_NAME": "IRIDIUM 33 DEB", "OBJECT_ID": "1997-051FT", "EPOCH": "2025-12-20T12:24:40.051872", "MEAN_MOTION": 14.18005586, "ECCENTRICITY": 0.01036912, "INCLINATION": 86.4321, "RA_OF_ASC_NODE": 179.5653, "ARG_OF_PERICENTER": 102.408, "MEAN_ANOMALY": 278.8624, "EPHEMERIS_TYPE": 0, "CLASSIFICATION_TYPE": "U", "NORAD_CAT_ID": 34375, "ELEMENT_SET_NO": 999, "REV_AT_EPOCH": 86822, "BSTAR": 0.00031260448, "MEAN_MOTION_DOT": 6.95e-06, "MEAN_MOTION_DDOT": 0}, "tle": {"line1": "1 34375U 97051FT  25354.51713023  .00000695  00000+0  31260-3 0  9999", "line2": "2 34375  86.4321 179.5653 0103691 102.4080 278.8624 14.18005586868220"}}, "geometry": {"type": "Point", "coordinates": [-12.481946545349171, 72.97408664893153]}}, {"type": "Feature", "properties": {"norad_id": 34376, "name": "IRIDIUM 33 DEB", "group": "iridium-33-debris", "lat": 41.878173575715884, "lon": 6.046441302945039, "alt_km": 683.4671150144795, "timestamp": "2025-12-21T05:44:51.972583+00:00", "meta": {"OBJECT_NAME": "IRIDIUM 33 DEB", "OBJECT_ID": "1997-051FU", "EPOCH": "2025-12-20T18:03:45.456480", "MEAN_MOTION": 14.62666051, "ECCENTRICITY": 0.00280843, "INCLINATION": 86.2976, "RA_OF_ASC_NODE": 2.9372, "ARG_OF_PERICENTER": 140.2366, "MEAN_ANOMALY": 220.0911, "EPHEMERIS_TYPE": 0, "CLASSIFICATION_TYPE": "U", "NORAD_CAT_ID": 34376, "ELEMENT_SET_NO": 999, "REV_AT_EPOCH": 88124, "BSTAR": 0.00085931686, "MEAN_MOTION_DOT": 4.418e-05, "MEAN_MOTION_DDOT": 0}, "tle": {"line1": "1 34376U 97051FU  25354.75260945  .00004418  00000+0  85932-3 0  9998", "line2": "2 34376  86.2976   2.9372 0028084 140.2366 220.0911 14.62666051881245"}}, "geometry": {"type": "Point", "coordinates": [6.046441302945039, 41.878173575715884]}}, {"type": "Feature", "properties": {"norad_id": 34486, "name": "IRIDIUM 33 DEB", "group": "iridium-33-debris", "lat": -18.52765353218813, "lon": -170.68794881246657, "alt_km": 587.5469003800154, "timestamp": "2025-12-21T05:44:51.972593+00:00", "meta": {"OBJECT_NAME": "IRIDIUM 33 DEB", "OBJECT_ID": "1997-051GB", "EPOCH": "2025-12-20T00:04:17.796000", "MEAN_MOTION": 14.96101928, "ECCENTRICITY": 0.0013908, "INCLINATION": 86.3929, "RA_OF_ASC_NODE": 8.6716, "ARG_OF_PERICENTER": 91.5412, "MEAN_ANOMALY": 291.3403, "EPHEMERIS_TYPE": 0, "CLASSIFICATION_TYPE": "U", "NORAD_CAT_ID": 34486, "ELEMENT_SET_NO": 999, "REV_AT_EPOCH": 89095, "BSTAR": 0.0013547, "MEAN_MOTION_DOT": 0.00015301, "MEAN_MOTION_DDOT": 0}, "tle": {"line1": "1 34486U 97051GB  25354.00298375  .00015301  00000+0  13547-2 0  9991", "line2": "2 34486  86.3929   8.6716 0013908  91.5412 291.3403 14.96101928890959"}}, "geometry": {"type": "Point", "coordinates": [-170.68794881246657, -18.52765353218813]}}, {"type": "Feature", "properties": {"norad_id": 34487, "name": "IRIDIUM 33 DEB", "group": "iridium-33-debris", "lat": 40.920552920444116, "lon": 11.895724571048213, "alt_km": 733.0541904221691, "timestamp": "2025-12-21T05:44:51.972604+00:00", "meta": {"OBJECT_NAME": "IRIDIUM 33 DEB", "OBJECT_ID": "1997-051GC", "EPOCH": "2025-12-20T11:57:25.083072", "MEAN_MOTION": 14.43225278, "ECCENTRICITY": 0.0033198, "INCLINATION": 86.343, "RA_OF_ASC_NODE": 9.0367, "ARG_OF_PERICENTER": 104.2431, "MEAN_ANOMALY": 48.2266, "EPHEMERIS_TYPE": 0, "CLASSIFICATION_TYPE": "U", "NORAD_CAT_ID": 34487, "ELEMENT_SET_NO": 999, "REV_AT_EPOCH": 88360, "BSTAR": 0.00013260723, "MEAN_MOTION_DOT": 4.69e-06, "MEAN_MOTION_DDOT": 0}, "tle": {"line1": "1 34487U 97051GC  25354.49820698  .00000469  00000+0  13261-3 0  9997", "line2": "2 34487  86.3430   9.0367 0033198 104.2431  48.2266 14.43225278883607"}}, "geometry": {"type": "Point", "coordinates": [11.895724571048213, 40.920552920444116]}}, {"type": "Feature", "properties": {"norad_id": 34488, "name": "IRIDIUM 33 DEB", "group": "iridium-33-debris", "lat": 24.752724453153178, "lon": 119.8983089478686, "alt_km": 474.7828979565129, "timestamp": "2025-12-21T05:44:51.972614+00:00", "meta": {"OBJECT_NAME": "IRIDIUM 33 DEB", "OBJECT_ID": "1997-051GD", "EPOCH": "2025-12-20T21:13:54.490080", "MEAN_MOTION": 15.31302202, "ECCENTRICITY": 0.00109475, "INCLINATION": 86.3254, "RA_OF_ASC_NODE": 301.7725, "ARG_OF_PERICENTER": 38.0894, "MEAN_ANOMALY": 322.1127, "EPHEMERIS_TYPE": 0, "CLASSIFICATION_TYPE": "U", "NORAD_CAT_ID": 34488, "ELEMENT_SET_NO": 999, "REV_AT_EPOCH": 89364, "BSTAR": 0.0030791067, "MEAN_MOTION_DOT": 0.00094223, "MEAN_MOTION_DDOT": 0}, "tle": {"line1": "1 34488U 97051GD  25354.88465845  .00094223  00000+0  30791-2 0  9997", "line2": "2 34488  86.3254 301.7725 0010947  38.0894 322.1127 15.31302202893642"}}, "geometry": {"type": "Point", "coordinates": [119.8983089478686, 24.752724453153178]}}, {"type": "Feature", "properties": {"norad_id": 34492, "name": "IRIDIUM 33 DEB", "group": "iridium-33-debris", "lat": -38.80768149148271, "lon": -31.65255349626952, "alt_km": 857.5081848136106, "timestamp": "2025-12-21T05:44:51.972624+00:00", "meta": {"OBJECT_NAME": "IRIDIUM 33 DEB", "OBJECT_ID": "1997-051GH", "EPOCH": "2025-12-19T10:45:18.347328", "MEAN_MOTION": 14.25846982, "ECCENTRICITY": 0.0188646, "INCLINATION": 86.4707, "RA_OF_ASC_NODE": 331.9164, "ARG_OF_PERICENTER": 216.3823, "MEAN_ANOMALY": 273.3437, "EPHEMERIS_TYPE": 0, "CLASSIFICATION_TYPE": "U", "NORAD_CAT_ID": 34492, "ELEMENT_SET_NO": 999, "REV_AT_EPOCH": 85154, "BSTAR": 0.0022012, "MEAN_MOTION_DOT": 6.332e-05, "MEAN_MOTION_DDOT": 0}, "tle": {"line1": "1 34492U 97051GH  25353.44812902  .00006332  00000+0  22012-2 0  9994", "line2": "2 34492  86.4707 331.9164 0188646 216.3823 273.3437 14.25846982851542"}}, "geometry": {"type": "Point", "coordinates": [-31.65255349626952, -38.80768149148271]}}, {"type": "Feature", "properties": {"norad_id": 34497, "name": "IRIDIUM 33 DEB", "group": "iridium-33-debris", "lat": -67.13641390725985, "lon": -122.34749729568668, "alt_km": 782.9109301392882, "timestamp": "2025-12-21T05:44:51.972637+00:00", "meta": {"OBJECT_NAME": "IRIDIUM 33 DEB", "OBJECT_ID": "1997-051GN", "EPOCH": "2025-12-19T10:35:53.025216", "MEAN_MOTION": 14.2747197, "ECCENTRICITY": 0.0078309, "INCLINATION": 86.2774, "RA_OF_ASC_NODE": 49.5385, "ARG_OF_PERICENTER": 317.619, "MEAN_ANOMALY": 57.0969, "EPHEMERIS_TYPE": 0, "CLASSIFICATION_TYPE": "U", "NORAD_CAT_ID": 34497, "ELEMENT_SET_NO": 999, "REV_AT_EPOCH": 86979, "BSTAR": 0.00044435, "MEAN_MOTION_DOT": 1.145e-05, "MEAN_MOTION_DDOT": 0}, "tle": {"line1": "1 34497U 97051GN  25353.44158594  .00001145  00000+0  44435-3 0  9990", "line2": "2 34497  86.2774  49.5385 0078309 317.6190  57.0969 14.27471970869798"}}, "geometry": {"type": "Point", "coordinates": [-122.34749729568668, -67.13641390725985]}}, {"type": "Feature", "properties": {"norad_id": 34508, "name": "IRIDIUM 33 DEB", "group": "iridium-33-debris", "lat": 21.33759112225645, "lon": 100.46071437091422, "alt_km": 789.9159127406838, "timestamp": "2025-12-21T05:44:51.972647+00:00", "meta": {"OBJECT_NAME": "IRIDIUM 33 DEB", "OBJECT_ID": "1997-051GZ", "EPOCH": "2025-12-20T17:57:40.605696", "MEAN_MOTION": 14.38482404, "ECCENTRICITY": 0.00666151, "INCLINATION": 86.371, "RA_OF_ASC_NODE": 99.2483, "ARG_OF_PERICENTER": 147.2319, "MEAN_ANOMALY": 213.3038, "EPHEMERIS_TYPE": 0, "CLASSIFICATION_TYPE": "U", "NORAD_CAT_ID": 34508, "ELEMENT_SET_NO": 999, "REV_AT_EPOCH": 87424, "BSTAR": 0.00079549116, "MEAN_MOTION_DOT": 2.512e-05, "MEAN_MOTION_DDOT": 0}, "tle": {"line1": "1 34508U 97051GZ  25354.74838664  .00002512  00000+0  79549-3 0  9993", "line2": "2 34508  86.3710  99.2483 0066615 147.2319 213.3038 14.38482404874246"}}, "geometry": {"type": "Point", "coordinates": [100.46071437091422, 21.33759112225645]}}, {"type": "Feature", "properties": {"norad_id": 34521, "name": "IRIDIUM 33 DEB", "group": "iridium-33-debris", "lat": -61.83445598509234, "lon": -146.40137025721612, "alt_km": 688.5861756259055, "timestamp": "2025-12-21T05:44:51.972657+00:00", "meta": {"OBJECT_NAME": "IRIDIUM 33 DEB", "OBJECT_ID": "1997-051HN", "EPOCH": "2025-12-20T20:26:24.361440", "MEAN_MOTION": 14.63427269, "ECCENTRICITY": 0.00025589, "INCLINATION": 86.3787, "RA_OF_ASC_NODE": 26.9765, "ARG_OF_PERICENTER": 179.8016, "MEAN_ANOMALY": 180.3197, "EPHEMERIS_TYPE": 0, "CLASSIFICATION_TYPE": "U", "NORAD_CAT_ID": 34521, "ELEMENT_SET_NO": 999, "REV_AT_EPOCH": 88591, "BSTAR": 0.00054051978, "MEAN_MOTION_DOT": 2.817e-05, "MEAN_MOTION_DDOT": 0}, "tle": {"line1": "1 34521U 97051HN  25354.85167085  .00002817  00000+0  54052-3 0  9992", "line2": "2 34521  86.3787  26.9765 0002558 179.8016 180.3197 14.63427269885917"}}, "geometry": {"type": "Point", "coordinates": [-146.40137025721612, -61.83445598509234]}}, {"type": "Feature", "properties": {"norad_id": 34525, "name": "IRIDIUM 33 DEB", "group": "iridium-33-debris", "lat": 24.71712257855459, "lon": -138.45776948809535, "alt_km": 747.4856525992336, "timestamp": "2025-12-21T05:44:51.972667+00:00", "meta": {"OBJECT_NAME": "IRIDIUM 33 DEB", "OBJECT_ID": "1997-051HS", "EPOCH": "2025-12-20T04:21:41.244768", "MEAN_MOTION": 14.42921764, "ECCENTRICITY": 0.00064705, "INCLINATION": 86.3721, "RA_OF_ASC_NODE": 43.6672, "ARG_OF_PERICENTER": 78.1419, "MEAN_ANOMALY": 345.8375, "EPHEMERIS_TYPE": 0, "CLASSIFICATION_TYPE": "U", "NORAD_CAT_ID": 34525, "ELEMENT_SET_NO": 999, "REV_AT_EPOCH": 88195, "BSTAR": 0.00024009823, "MEAN_MOTION_DOT": 8.22e-06, "MEAN_MOTION_DDOT": 0}, "tle": {"line1": "1 34525U 97051HS  25354.18172737  .00000822  00000+0  24010-3 0  9997", "line2": "2 34525  86.3721  43.6672 0006470  78.1419 345.8375 14.42921764881959"}}, "geometry": {"type": "Point", "coordinates": [-138.45776948809535, 24.71712257855459]}}]}